[{"OBJECT_NAME":"STARLINK-3203","OBJECT_ID":"2021-115AP","EPOCH":"2026-03-09T10:13:09.926112","MEAN_MOTION":15.08834749,"ECCENTRICITY":0.00013882,"INCLINATION":53.2181,"RA_OF_ASC_NODE":140.3041,"ARG_OF_PERICENTER":85.9447,"MEAN_ANOMALY":274.1704,"EPHEMERIS_TYPE":0,"CLASSIFICATION_TYPE":"U","NORAD_CAT_ID":49761,"ELEMENT_SET_NO":999,"REV_AT_EPOCH":23563,"BSTAR":-3.6623807e-5,"MEAN_MOTION_DOT":-8.71e-6,"MEAN_MOTION_DDOT":0},{"OBJECT_NAME":"IRIDIUM 33 DEB","OBJECT_ID":"1997-051ACD","EPOCH":"2026-02-15T04:06:14.442336","MEAN_MOTION":15.0282309,"ECCENTRICITY":0.00183243,"INCLINATION":86.3384,"RA_OF_ASC_NODE":302.6959,"ARG_OF_PERICENTER":121.5358,"MEAN_ANOMALY":29.3036,"EPHEMERIS_TYPE":0,"CLASSIFICATION_TYPE":"U","NORAD_CAT_ID":46971,"ELEMENT_SET_NO":999,"REV_AT_EPOCH":65196,"BSTAR":0.0024316654,"MEAN_MOTION_DOT":0.00032805,"MEAN_MOTION_DDOT":0}]
